BANDWAGON-4 OBJECT D    
1 66296U 25248D   26067.66346479  .00010544  00000+0  48957-3 0  9995
2 66296  45.4053 299.7330 0005553 216.9625 143.0880 15.20246176 19226
TRANSPORTER-15 OBJECT CX
1 66759U 25276CX  26068.76139911  .00008872  00000+0  41936-3 0  9994
2 66759  97.4237 144.0993 0000189  69.6860 290.4395 15.19627935 15332
